ATLAS CENTAUR R/B       
1 06155U 72065B   25320.84366091  .00001995  00000+0  27710-3 0  9999
2 06155  35.0013 246.8819 0033370 142.1682 218.1372 14.77315689824569
SL-8 R/B                
1 08459U 75112B   25320.74459097  .00000537  00000+0  18544-3 0  9998
2 08459  74.0608 226.6694 0015898 341.5766  18.4810 14.38122340615632
SL-3 R/B                
1 10114U 77057B   25320.74262716  .00017670  00000+0  41409-3 0  9991
2 10114  97.5675 123.0767 0007284 340.0872  20.0090 15.42128189650901
SEASAT 1                
1 10967U 78064A   25320.74054338  .00000880  00000+0  28492-3 0  9997
2 10967 108.0071 248.4960 0002264 254.2426 105.8470 14.46020086490182
SL-14 R/B               
1 11267U 79011B   25320.69504418  .00001123  00000+0  10871-3 0  9990
2 11267  82.5257 203.7413 0017677  76.0605 284.2579 14.91726449511933
SL-8 R/B                
1 11574U 79089B   25320.68632799  .00000601  00000+0  19004-3 0  9996
2 11574  74.0679 300.1993 0014886 145.2656 214.9476 14.42258439419812
SL-14 R/B               
1 11672U 80005B   25320.70098645  .00001334  00000+0  13306-3 0  9997
2 11672  82.5161  54.3890 0015899 174.9519 185.1863 14.90744849459650
SL-8 R/B                
1 12139U 81003B   25320.63184455  .00030919  00000+0  84597-3 0  9993
2 12139  82.9347  34.2087 0282226 210.5962 147.8549 15.05753727297639
SL-3 R/B                
1 12465U 81046B   25320.75602799  .00017226  00000+0  44371-3 0  9993
2 12465  81.2337  64.9982 0020509  53.6998 306.6133 15.38869142421048
METEOR PRIRODA          
1 12585U 81065A   25321.03559245  .01822840  24895-5  73777-3 0  9999
2 12585  97.4616  26.3223 0005622 260.9725  99.0929 16.23469222426681
SL-3 R/B                
1 12904U 81103B   25320.78888443  .00009633  00000+0  44793-3 0  9991
2 12904  81.1599 345.7393 0012169 314.6204  45.4033 15.19790470956073
SL-3 R/B                
1 13068U 82013B   25320.78769279  .00006987  00000+0  31407-3 0  9996
2 13068  81.1730 292.9816 0022364 196.4795 163.5712 15.20764530387180
