CCSDS_OMM_VERS = 2.0
CREATION_DATE  = 
ORIGINATOR     = 

OBJECT_NAME    = ATLAS CENTAUR R/B
OBJECT_ID      = 1972-065B
CENTER_NAME    = EARTH
REF_FRAME      = TEME
TIME_SYSTEM    = UTC
MEAN_ELEMENT_THEORY = SGP/SGP4

EPOCH          = 2025-11-16T20:14:52.302624
MEAN_MOTION    = 14.77315689
ECCENTRICITY   = .003337
INCLINATION    = 35.0013
RA_OF_ASC_NODE = 246.8819
ARG_OF_PERICENTER = 142.1682
MEAN_ANOMALY   = 218.1372

EPHEMERIS_TYPE = 0
CLASSIFICATION_TYPE = U
NORAD_CAT_ID   = 6155
ELEMENT_SET_NO = 999
REV_AT_EPOCH   = 82456
BSTAR          = .2771E-3
MEAN_MOTION_DOT = .1995E-4
MEAN_MOTION_DDOT = 0

CCSDS_OMM_VERS = 2.0
CREATION_DATE  = 
ORIGINATOR     = 

OBJECT_NAME    = SL-8 R/B
OBJECT_ID      = 1975-112B
CENTER_NAME    = EARTH
REF_FRAME      = TEME
TIME_SYSTEM    = UTC
MEAN_ELEMENT_THEORY = SGP/SGP4

EPOCH          = 2025-11-16T17:52:12.659808
MEAN_MOTION    = 14.38122340
ECCENTRICITY   = .0015898
INCLINATION    = 74.0608
RA_OF_ASC_NODE = 226.6694
ARG_OF_PERICENTER = 341.5766
MEAN_ANOMALY   = 18.4810

EPHEMERIS_TYPE = 0
CLASSIFICATION_TYPE = U
NORAD_CAT_ID   = 8459
ELEMENT_SET_NO = 999
REV_AT_EPOCH   = 61563
BSTAR          = .18544E-3
MEAN_MOTION_DOT = .537E-5
MEAN_MOTION_DDOT = 0

CCSDS_OMM_VERS = 2.0
CREATION_DATE  = 
ORIGINATOR     = 

OBJECT_NAME    = SL-3 R/B
OBJECT_ID      = 1977-057B
CENTER_NAME    = EARTH
REF_FRAME      = TEME
TIME_SYSTEM    = UTC
MEAN_ELEMENT_THEORY = SGP/SGP4

EPOCH          = 2025-11-16T17:49:22.986624
MEAN_MOTION    = 15.42128189
ECCENTRICITY   = .0007284
INCLINATION    = 97.5675
RA_OF_ASC_NODE = 123.0767
ARG_OF_PERICENTER = 340.0872
MEAN_ANOMALY   = 20.0090

EPHEMERIS_TYPE = 0
CLASSIFICATION_TYPE = U
NORAD_CAT_ID   = 10114
ELEMENT_SET_NO = 999
REV_AT_EPOCH   = 65090
BSTAR          = .41409E-3
MEAN_MOTION_DOT = .1767E-3
MEAN_MOTION_DDOT = 0

CCSDS_OMM_VERS = 2.0
CREATION_DATE  = 
ORIGINATOR     = 

OBJECT_NAME    = SEASAT 1
OBJECT_ID      = 1978-064A
CENTER_NAME    = EARTH
REF_FRAME      = TEME
TIME_SYSTEM    = UTC
MEAN_ELEMENT_THEORY = SGP/SGP4

EPOCH          = 2025-11-16T17:46:22.948032
MEAN_MOTION    = 14.46020086
ECCENTRICITY   = .0002264
INCLINATION    = 108.0071
RA_OF_ASC_NODE = 248.4960
ARG_OF_PERICENTER = 254.2426
MEAN_ANOMALY   = 105.8470

EPHEMERIS_TYPE = 0
CLASSIFICATION_TYPE = U
NORAD_CAT_ID   = 10967
ELEMENT_SET_NO = 999
REV_AT_EPOCH   = 49018
BSTAR          = .28492E-3
MEAN_MOTION_DOT = .88E-5
MEAN_MOTION_DDOT = 0

CCSDS_OMM_VERS = 2.0
CREATION_DATE  = 
ORIGINATOR     = 

OBJECT_NAME    = SL-14 R/B
OBJECT_ID      = 1979-011B
CENTER_NAME    = EARTH
REF_FRAME      = TEME
TIME_SYSTEM    = UTC
MEAN_ELEMENT_THEORY = SGP/SGP4

EPOCH          = 2025-11-16T16:40:51.817152
MEAN_MOTION    = 14.91726449
ECCENTRICITY   = .0017677
INCLINATION    = 82.5257
RA_OF_ASC_NODE = 203.7413
ARG_OF_PERICENTER = 76.0605
MEAN_ANOMALY   = 284.2579

EPHEMERIS_TYPE = 0
CLASSIFICATION_TYPE = U
NORAD_CAT_ID   = 11267
ELEMENT_SET_NO = 999
REV_AT_EPOCH   = 51193
BSTAR          = .10871E-3
MEAN_MOTION_DOT = .1123E-4
MEAN_MOTION_DDOT = 0

CCSDS_OMM_VERS = 2.0
CREATION_DATE  = 
ORIGINATOR     = 

OBJECT_NAME    = SL-8 R/B
OBJECT_ID      = 1979-089B
CENTER_NAME    = EARTH
REF_FRAME      = TEME
TIME_SYSTEM    = UTC
MEAN_ELEMENT_THEORY = SGP/SGP4

EPOCH          = 2025-11-16T16:28:18.738336
MEAN_MOTION    = 14.42258439
ECCENTRICITY   = .0014886
INCLINATION    = 74.0679
RA_OF_ASC_NODE = 300.1993
ARG_OF_PERICENTER = 145.2656
MEAN_ANOMALY   = 214.9476

EPHEMERIS_TYPE = 0
CLASSIFICATION_TYPE = U
NORAD_CAT_ID   = 11574
ELEMENT_SET_NO = 999
REV_AT_EPOCH   = 41981
BSTAR          = .19004E-3
MEAN_MOTION_DOT = .601E-5
MEAN_MOTION_DDOT = 0

CCSDS_OMM_VERS = 2.0
CREATION_DATE  = 
ORIGINATOR     = 

OBJECT_NAME    = SL-14 R/B
OBJECT_ID      = 1980-005B
CENTER_NAME    = EARTH
REF_FRAME      = TEME
TIME_SYSTEM    = UTC
MEAN_ELEMENT_THEORY = SGP/SGP4

EPOCH          = 2025-11-16T16:49:25.229280
MEAN_MOTION    = 14.90744849
ECCENTRICITY   = .0015899
INCLINATION    = 82.5161
RA_OF_ASC_NODE = 54.3890
ARG_OF_PERICENTER = 174.9519
MEAN_ANOMALY   = 185.1863

EPHEMERIS_TYPE = 0
CLASSIFICATION_TYPE = U
NORAD_CAT_ID   = 11672
ELEMENT_SET_NO = 999
REV_AT_EPOCH   = 45965
BSTAR          = .13306E-3
MEAN_MOTION_DOT = .1334E-4
MEAN_MOTION_DDOT = 0

CCSDS_OMM_VERS = 2.0
CREATION_DATE  = 
ORIGINATOR     = 

OBJECT_NAME    = SL-8 R/B
OBJECT_ID      = 1981-003B
CENTER_NAME    = EARTH
REF_FRAME      = TEME
TIME_SYSTEM    = UTC
MEAN_ELEMENT_THEORY = SGP/SGP4

EPOCH          = 2025-11-16T15:09:51.369120
MEAN_MOTION    = 15.05753727
ECCENTRICITY   = .02822261
INCLINATION    = 82.9347
RA_OF_ASC_NODE = 34.2087
ARG_OF_PERICENTER = 210.5962
MEAN_ANOMALY   = 147.8549

EPHEMERIS_TYPE = 0
CLASSIFICATION_TYPE = U
NORAD_CAT_ID   = 12139
ELEMENT_SET_NO = 999
REV_AT_EPOCH   = 29763
BSTAR          = .84596515E-3
MEAN_MOTION_DOT = .30919E-3
MEAN_MOTION_DDOT = 0

CCSDS_OMM_VERS = 2.0
CREATION_DATE  = 
ORIGINATOR     = 

OBJECT_NAME    = SL-3 R/B
OBJECT_ID      = 1981-046B
CENTER_NAME    = EARTH
REF_FRAME      = TEME
TIME_SYSTEM    = UTC
MEAN_ELEMENT_THEORY = SGP/SGP4

EPOCH          = 2025-11-16T18:08:40.818336
MEAN_MOTION    = 15.38869142
ECCENTRICITY   = .0020509
INCLINATION    = 81.2337
RA_OF_ASC_NODE = 64.9982
ARG_OF_PERICENTER = 53.6998
MEAN_ANOMALY   = 306.6133

EPHEMERIS_TYPE = 0
CLASSIFICATION_TYPE = U
NORAD_CAT_ID   = 12465
ELEMENT_SET_NO = 999
REV_AT_EPOCH   = 42104
BSTAR          = .44371E-3
MEAN_MOTION_DOT = .17226E-3
MEAN_MOTION_DDOT = 0

CCSDS_OMM_VERS = 2.0
CREATION_DATE  = 
ORIGINATOR     = 

OBJECT_NAME    = METEOR PRIRODA
OBJECT_ID      = 1981-065A
CENTER_NAME    = EARTH
REF_FRAME      = TEME
TIME_SYSTEM    = UTC
MEAN_ELEMENT_THEORY = SGP/SGP4

EPOCH          = 2025-11-17T00:51:15.187680
MEAN_MOTION    = 16.23469222
ECCENTRICITY   = .0005622
INCLINATION    = 97.4616
RA_OF_ASC_NODE = 26.3223
ARG_OF_PERICENTER = 260.9725
MEAN_ANOMALY   = 99.0929

EPHEMERIS_TYPE = 0
CLASSIFICATION_TYPE = U
NORAD_CAT_ID   = 12585
ELEMENT_SET_NO = 999
REV_AT_EPOCH   = 42668
BSTAR          = .73777E-3
MEAN_MOTION_DOT = .182284E-1
MEAN_MOTION_DDOT = .24895E-5

CCSDS_OMM_VERS = 2.0
CREATION_DATE  = 
ORIGINATOR     = 

OBJECT_NAME    = SL-3 R/B
OBJECT_ID      = 1981-103B
CENTER_NAME    = EARTH
REF_FRAME      = TEME
TIME_SYSTEM    = UTC
MEAN_ELEMENT_THEORY = SGP/SGP4

EPOCH          = 2025-11-16T18:55:59.614752
MEAN_MOTION    = 15.19790470
ECCENTRICITY   = .0012169
INCLINATION    = 81.1599
RA_OF_ASC_NODE = 345.7393
ARG_OF_PERICENTER = 314.6204
MEAN_ANOMALY   = 45.4033

EPHEMERIS_TYPE = 0
CLASSIFICATION_TYPE = U
NORAD_CAT_ID   = 12904
ELEMENT_SET_NO = 999
REV_AT_EPOCH   = 95607
BSTAR          = .44793E-3
MEAN_MOTION_DOT = .9633E-4
MEAN_MOTION_DDOT = 0

CCSDS_OMM_VERS = 2.0
CREATION_DATE  = 
ORIGINATOR     = 

OBJECT_NAME    = SL-3 R/B
OBJECT_ID      = 1982-013B
CENTER_NAME    = EARTH
REF_FRAME      = TEME
TIME_SYSTEM    = UTC
MEAN_ELEMENT_THEORY = SGP/SGP4

EPOCH          = 2025-11-16T18:54:16.657056
MEAN_MOTION    = 15.20764530
ECCENTRICITY   = .0022364
INCLINATION    = 81.1730
RA_OF_ASC_NODE = 292.9816
ARG_OF_PERICENTER = 196.4795
MEAN_ANOMALY   = 163.5712

EPHEMERIS_TYPE = 0
CLASSIFICATION_TYPE = U
NORAD_CAT_ID   = 13068
ELEMENT_SET_NO = 999
REV_AT_EPOCH   = 38718
BSTAR          = .31407E-3
MEAN_MOTION_DOT = .6987E-4
MEAN_MOTION_DDOT = 0

